;FLAVOR:Marlin
;TIME:162
;Filament used: 0.31332m
;Layer height: 0.2
;MINX:193.18
;MINY:194.792
;MINZ:0.2
;MAXX:252.58
;MAXY:254.192
;MAXZ:0.2
;TARGET_MACHINE.NAME:Unknown
;ARCWELDERPROCESSED
; Postprocessed by [ArcWelder](https://github.com/FormerLurker/ArcWelderLib)
; Copyright(C) 2021 - Brad Hochgesang
; Version: 1.2.0, Branch: HEAD, BuildDate: 2021-11-21T20:25:43Z
; resolution=0.05mm
; path_tolerance=10.0%
; max_radius=1000.00mm
; firmware_compensation=True
; mm_per_arc_segment=1.00mm
; min_arc_segments=36
; default_xyz_precision=4
; default_e_precision=6
; extrusion_rate_variance_percent=0.0%

;Generated with Cura_SteamEngine 5.9.0
M140 S10
M105
M190 S10
M104 S10
M105
M109 S10
M82 ;absolute extrusion mode
G28 ;Home
G1 Z15.0 F6000 ;Move the platform down 15mm
;Prime the extruder
G92 E0
G1 F200 E3
G92 E0
G92 E0
G92 E0
G1 F3600 E-2.5
;LAYER_COUNT:1
;LAYER:0
M107
;MESH:AA.stl
G0 X251.98 Y253.592 Z0.2
;TYPE:WALL-INNER
G1 F3600 E0.12473
G1 F2400 X251.98 Y195.392 E2.9601
G1 X193.78 Y195.392 E5.79548
G1 X193.78 Y253.592 E8.63085
G1 X251.98 Y253.592 E11.46623
G0 F3600 X252.58 Y254.192
;TYPE:WALL-OUTER
G1 F2400 X252.58 Y194.792 E14.36006
G1 X193.18 Y194.792 E17.2539
G1 X193.18 Y254.192 E20.14773
G1 X252.58 Y254.192 E23.04157
G0 F3600 X252.58 Y253.892
G0 X251.602 Y253.212
G0 X251.408 Y253.02
;TYPE:SKIN
G1 F2400 X194.348 Y253.02 E26.03064
G1 X194.348 Y195.96 E29.01971
G1 X251.408 Y195.96 E32.00879
G1 X251.408 Y253.02 E34.99786
G0 F3600 X251.108 Y196.802
G1 F2400 X250.566 Y196.26 E35.03801
G0 F3600 X249.718 Y196.26
G1 F2400 X251.108 Y197.65 E35.14099
G0 F3600 X251.108 Y198.499
G1 F2400 X248.869 Y196.26 E35.30686
G0 F3600 X248.021 Y196.26
G1 F2400 X251.108 Y199.348 E35.53559
G0 F3600 X251.108 Y200.196
G1 F2400 X247.172 Y196.26 E35.82718
G0 F3600 X246.323 Y196.26
G1 F2400 X251.108 Y201.045 E36.18167
G0 F3600 X251.108 Y201.893
G1 F2400 X245.475 Y196.26 E36.59898
G0 F3600 X244.626 Y196.26
G1 F2400 X251.108 Y202.742 E37.07919
G0 F3600 X251.108 Y203.59
G1 F2400 X243.778 Y196.26 E37.62222
G0 F3600 X242.929 Y196.26
G1 F2400 X251.108 Y204.439 E38.22814
G0 F3600 X251.108 Y205.287
G1 F2400 X242.081 Y196.26 E38.89689
G0 F3600 X241.232 Y196.26
G1 F2400 X251.108 Y206.136 E39.62854
G0 F3600 X251.108 Y206.984
G1 F2400 X240.384 Y196.26 E40.42301
G0 F3600 X239.535 Y196.26
G1 F2400 X251.108 Y207.833 E41.28037
G0 F3600 X251.108 Y208.681
G1 F2400 X238.687 Y196.26 E42.20056
G0 F3600 X237.838 Y196.26
G1 F2400 X251.108 Y209.53 E43.18364
G0 F3600 X251.108 Y210.378
G1 F2400 X236.99 Y196.26 E44.22955
G0 F3600 X236.141 Y196.26
G1 F2400 X251.108 Y211.227 E45.33835
G0 F3600 X251.108 Y212.075
G1 F2400 X235.293 Y196.26 E46.50997
G0 F3600 X234.444 Y196.26
G1 F2400 X251.108 Y212.924 E47.7445
G0 F3600 X251.108 Y213.773
G1 F2400 X233.596 Y196.26 E49.04188
G0 F3600 X232.747 Y196.26
G1 F2400 X251.108 Y214.621 E50.40212
G0 F3600 X251.108 Y215.47
G1 F2400 X231.898 Y196.26 E51.82526
G0 F3600 X231.05 Y196.26
G1 F2400 X251.108 Y216.318 E53.31122
G0 F3600 X251.108 Y217.167
G1 F2400 X230.201 Y196.26 E54.86007
G0 F3600 X229.353 Y196.26
G1 F2400 X251.108 Y218.015 E56.47175
G0 F3600 X251.108 Y218.864
G1 F2400 X228.504 Y196.26 E58.14633
G0 F3600 X227.656 Y196.26
G1 F2400 X251.108 Y219.712 E59.88373
G0 F3600 X251.108 Y220.561
G1 F2400 X226.807 Y196.26 E61.68402
G0 F3600 X225.959 Y196.26
G1 F2400 X251.108 Y221.409 E63.54714
G0 F3600 X251.108 Y222.258
G1 F2400 X225.11 Y196.26 E65.47316
G0 F3600 X224.262 Y196.26
G1 F2400 X251.108 Y223.106 E67.46199
G0 F3600 X251.108 Y223.955
G1 F2400 X223.413 Y196.26 E69.51373
G0 F3600 X222.565 Y196.26
G1 F2400 X251.108 Y224.803 E71.62828
G0 F3600 X251.108 Y225.652
G1 F2400 X221.716 Y196.26 E73.80573
G0 F3600 X220.868 Y196.26
G1 F2400 X251.108 Y226.5 E76.04601
G0 F3600 X251.108 Y227.349
G1 F2400 X220.019 Y196.26 E78.34918
G0 F3600 X219.171 Y196.26
G1 F2400 X251.108 Y228.198 E80.71521
G0 F3600 X251.108 Y229.046
G1 F2400 X218.322 Y196.26 E83.1441
G0 F3600 X217.474 Y196.26
G1 F2400 X251.108 Y229.895 E85.63585
G0 F3600 X251.108 Y230.743
G1 F2400 X216.625 Y196.26 E88.19046
G0 F3600 X215.776 Y196.26
G1 F2400 X251.108 Y231.592 E90.80797
G0 F3600 X251.108 Y232.44
G1 F2400 X214.928 Y196.26 E93.4883
G0 F3600 X214.079 Y196.26
G1 F2400 X251.108 Y233.289 E96.23152
G0 F3600 X251.108 Y234.137
G1 F2400 X213.231 Y196.26 E99.03757
G0 F3600 X212.382 Y196.26
G1 F2400 X251.108 Y234.986 E101.90652
G0 F3600 X251.108 Y235.834
G1 F2400 X211.534 Y196.26 E104.83829
G0 F3600 X210.685 Y196.26
G1 F2400 X251.108 Y236.683 E107.83295
G0 F3600 X251.108 Y237.531
G1 F2400 X209.837 Y196.26 E110.89044
G0 F3600 X208.988 Y196.26
G1 F2400 X251.108 Y238.38 E114.01082
G0 F3600 X251.108 Y239.228
G1 F2400 X208.14 Y196.26 E117.19402
G0 F3600 X207.291 Y196.26
G1 F2400 X251.108 Y240.077 E120.44013
G0 F3600 X251.108 Y240.925
G1 F2400 X206.443 Y196.26 E123.74905
G0 F3600 X205.594 Y196.26
G1 F2400 X251.108 Y241.774 E127.12087
G0 F3600 X251.108 Y242.622
G1 F2400 X204.746 Y196.26 E130.55552
G0 F3600 X203.897 Y196.26
G1 F2400 X251.108 Y243.471 E134.05306
G0 F3600 X251.108 Y244.32
G1 F2400 X203.049 Y196.26 E137.61346
G0 F3600 X202.2 Y196.26
G1 F2400 X251.108 Y245.168 E141.23672
G0 F3600 X251.108 Y246.017
G1 F2400 X201.351 Y196.26 E144.92287
G0 F3600 X200.503 Y196.26
G1 F2400 X251.108 Y246.865 E148.67185
G0 F3600 X251.108 Y247.714
G1 F2400 X199.654 Y196.26 E152.48373
G0 F3600 X198.806 Y196.26
G1 F2400 X251.108 Y248.562 E156.35843
G0 F3600 X251.108 Y249.411
G1 F2400 X197.957 Y196.26 E160.29602
G0 F3600 X197.109 Y196.26
G1 F2400 X251.108 Y250.259 E164.29644
G0 F3600 X251.108 Y251.108
G1 F2400 X196.26 Y196.26 E168.35975
G0 F3600 X195.412 Y196.26
G1 F2400 X251.108 Y251.956 E172.48589
G0 F3600 X251.023 Y252.72
G1 F2400 X194.648 Y196.345 E176.66233
G0 F3600 X194.648 Y197.194
G1 F2400 X250.174 Y252.72 E180.77587
G0 F3600 X249.326 Y252.72
G1 F2400 X194.648 Y198.042 E184.82659
G0 F3600 X194.648 Y198.891
G1 F2400 X248.477 Y252.72 E188.81441
G0 F3600 X247.629 Y252.72
G1 F2400 X194.648 Y199.739 E192.73941
G0 F3600 X194.648 Y200.588
G1 F2400 X246.78 Y252.72 E196.60152
G0 F3600 X245.932 Y252.72
G1 F2400 X194.648 Y201.436 E200.4008
G0 F3600 X194.648 Y202.285
G1 F2400 X245.083 Y252.72 E204.13718
G0 F3600 X244.235 Y252.72
G1 F2400 X194.648 Y203.133 E207.81074
G0 F3600 X194.648 Y203.982
G1 F2400 X243.386 Y252.72 E211.42141
G0 F3600 X242.538 Y252.72
G1 F2400 X194.648 Y204.83 E214.96925
G0 F3600 X194.648 Y205.679
G1 F2400 X241.689 Y252.72 E218.4542
G0 F3600 X240.841 Y252.72
G1 F2400 X194.648 Y206.528 E221.87629
G0 F3600 X194.648 Y207.376
G1 F2400 X239.992 Y252.72 E225.23551
G0 F3600 X239.144 Y252.72
G1 F2400 X194.648 Y208.225 E228.53188
G0 F3600 X194.648 Y209.073
G1 F2400 X238.295 Y252.72 E231.76539
G0 F3600 X237.446 Y252.72
G1 F2400 X194.648 Y209.922 E234.936
G0 F3600 X194.648 Y210.77
G1 F2400 X236.598 Y252.72 E238.04379
G0 F3600 X235.749 Y252.72
G1 F2400 X194.648 Y211.619 E241.08868
G0 F3600 X194.648 Y212.467
G1 F2400 X234.901 Y252.72 E244.07075
G0 F3600 X234.052 Y252.72
G1 F2400 X194.648 Y213.316 E246.98993
G0 F3600 X194.648 Y214.164
G1 F2400 X233.204 Y252.72 E249.84628
G0 F3600 X232.355 Y252.72
G1 F2400 X194.648 Y215.013 E252.63973
G0 F3600 X194.648 Y215.861
G1 F2400 X231.507 Y252.72 E255.37036
G0 F3600 X230.658 Y252.72
G1 F2400 X194.648 Y216.71 E258.0381
G0 F3600 X194.648 Y217.558
G1 F2400 X229.81 Y252.72 E260.64301
G0 F3600 X228.961 Y252.72
G1 F2400 X194.648 Y218.407 E263.18503
G0 F3600 X194.648 Y219.255
G1 F2400 X228.113 Y252.72 E265.66422
G0 F3600 X227.264 Y252.72
G1 F2400 X194.648 Y220.104 E268.08052
G0 F3600 X194.648 Y220.952
G1 F2400 X226.416 Y252.72 E270.43399
G0 F3600 X225.567 Y252.72
G1 F2400 X194.648 Y221.801 E272.72457
G0 F3600 X194.648 Y222.65
G1 F2400 X224.719 Y252.72 E274.95229
G0 F3600 X223.87 Y252.72
G1 F2400 X194.648 Y223.498 E277.11714
G0 F3600 X194.648 Y224.347
G1 F2400 X223.021 Y252.72 E279.21911
G0 F3600 X222.173 Y252.72
G1 F2400 X194.648 Y225.195 E281.25825
G0 F3600 X194.648 Y226.044
G1 F2400 X221.324 Y252.72 E283.23449
G0 F3600 X220.476 Y252.72
G1 F2400 X194.648 Y226.892 E285.14791
G0 F3600 X194.648 Y227.741
G1 F2400 X219.627 Y252.72 E286.99843
G0 F3600 X218.779 Y252.72
G1 F2400 X194.648 Y228.589 E288.78613
G0 F3600 X194.648 Y229.438
G1 F2400 X217.93 Y252.72 E290.51094
G0 F3600 X217.082 Y252.72
G1 F2400 X194.648 Y230.286 E292.17292
G0 F3600 X194.648 Y231.135
G1 F2400 X216.233 Y252.72 E293.772
G0 F3600 X215.385 Y252.72
G1 F2400 X194.648 Y231.983 E295.30827
G0 F3600 X194.648 Y232.832
G1 F2400 X214.536 Y252.72 E296.78163
G0 F3600 X213.688 Y252.72
G1 F2400 X194.648 Y233.68 E298.19218
G0 F3600 X194.648 Y234.529
G1 F2400 X212.839 Y252.72 E299.53982
G0 F3600 X211.991 Y252.72
G1 F2400 X194.648 Y235.377 E300.82465
G0 F3600 X194.648 Y236.226
G1 F2400 X211.142 Y252.72 E302.04658
G0 F3600 X210.294 Y252.72
G1 F2400 X194.648 Y237.075 E303.20564
G0 F3600 X194.648 Y237.923
G1 F2400 X209.445 Y252.72 E304.30185
G0 F3600 X208.597 Y252.72
G1 F2400 X194.648 Y238.772 E305.3352
G0 F3600 X194.648 Y239.62
G1 F2400 X207.748 Y252.72 E306.30569
G0 F3600 X206.899 Y252.72
G1 F2400 X194.648 Y240.469 E307.21328
G0 F3600 X194.648 Y241.317
G1 F2400 X206.051 Y252.72 E308.05805
G0 F3600 X205.202 Y252.72
G1 F2400 X194.648 Y242.166 E308.83993
G0 F3600 X194.648 Y243.014
G1 F2400 X204.354 Y252.72 E309.55898
G0 F3600 X203.505 Y252.72
G1 F2400 X194.648 Y243.863 E310.21513
G0 F3600 X194.648 Y244.711
G1 F2400 X202.657 Y252.72 E310.80847
G0 F3600 X201.808 Y252.72
G1 F2400 X194.648 Y245.56 E311.3389
G0 F3600 X194.648 Y246.408
G1 F2400 X200.96 Y252.72 E311.80651
G0 F3600 X200.111 Y252.72
G1 F2400 X194.648 Y247.257 E312.21123
G0 F3600 X194.648 Y248.105
G1 F2400 X199.263 Y252.72 E312.55313
G0 F3600 X198.414 Y252.72
G1 F2400 X194.648 Y248.954 E312.83212
G0 F3600 X194.648 Y249.802
G1 F2400 X197.566 Y252.72 E313.0483
G0 F3600 X196.717 Y252.72
G1 F2400 X194.648 Y250.651 E313.20158
G0 F3600 X194.648 Y251.499
G1 F2400 X195.869 Y252.72 E313.29203
G0 F3600 X195.02 Y252.72
G1 F2400 X194.648 Y252.348 E313.31959
G0 F3600 X194.692 Y252.348
;TIME_ELAPSED:162.200477
G1 F3600 E310.81959
M140 S0
M104 S0
M140 S0
;Retract the filament
G92 E1
G1 E-1 F300
G28 X0 Y0
M84
M82 ;absolute extrusion mode
M104 S0
;End of Gcode
;SETTING_3 {"global_quality": "[general]\\nversion = 4\\nname = petg-inlong\\nde
;SETTING_3 finition = custom\\n\\n[metadata]\\ntype = quality_changes\\nquality_
;SETTING_3 type = draft\\nsetting_version = 24\\n\\n[values]\\nadhesion_type = n
;SETTING_3 one\\nlayer_height = 0.2\\nlayer_height_0 = 0.2\\nmaterial_bed_temper
;SETTING_3 ature = 70\\nsupport_enable = True\\n\\n", "extruder_quality": ["[gen
;SETTING_3 eral]\\nversion = 4\\nname = petg-inlong\\ndefinition = custom\\n\\n[
;SETTING_3 metadata]\\ntype = quality_changes\\nquality_type = draft\\nintent_ca
;SETTING_3 tegory = default\\nposition = 0\\nsetting_version = 24\\n\\n[values]\
;SETTING_3 \ninfill_sparse_density = 30\\nmaterial_final_print_temperature = 230
;SETTING_3 \\nmaterial_flow = 93\\nmaterial_flow_layer_0 = 105\\nmaterial_print_
;SETTING_3 temperature = 240\\nretraction_extra_prime_amount = 0.3\\nretraction_
;SETTING_3 extrusion_window = 1\\nretraction_speed = 60\\nskin_material_flow = 1
;SETTING_3 00\\nspeed_print = 80\\nsupport_bottom_distance = 0.2\\nsupport_inter
;SETTING_3 face_density = 80\\nsupport_interface_enable = True\\nsupport_interfa
;SETTING_3 ce_height = 0.8\\nsupport_roof_pattern = lines\\nsupport_top_distance
;SETTING_3  = 0.2\\nwall_line_count = 2\\n\\n"]}
